IRIDIUM 155             
1 43573U 18061E   26128.20350141  .00000015  00000+0 -16567-5 0  9999
2 43573  86.3952  73.3892 0002284  85.0916 275.0540 14.34217592407624
IRIDIUM 154             
1 43574U 18061F   26127.90539911  .00000056  00000+0  12796-4 0  9993
2 43574  86.3956  73.6454 0002211  81.4440 278.7007 14.34217815407635
IRIDIUM 163             
1 43575U 18061G   26127.88637153  .00000092  00000+0  25613-4 0  9990
2 43575  86.3953  73.5699 0002267  88.2346 271.9109 14.34217818407602
IRIDIUM 156             
1 43576U 18061H   26128.20984132  .00000199  00000+0  64018-4 0  9990
2 43576  86.3954  73.4415 0002448  85.1374 275.0101 14.34216411407646
IRIDIUM 164             
1 43577U 18061J   26127.91174605  .00000060  00000+0  14196-4 0  9993
2 43577  86.3953  73.6063 0002156  80.9104 279.2335 14.34214829407643
IRIDIUM 159             
1 43578U 18061K   26127.88002868  .00000006  00000+0 -50024-5 0  9993
2 43578  86.3953  73.5573 0002091  87.9933 272.1502 14.34217609407607
IRIDIUM 180             
1 43922U 19002A   26128.15859844  .00000021  00000+0  39423-6 0  9994
2 43922  86.4003  10.3288 0002111  87.6439 272.4998 14.34217755383258
IRIDIUM 176             
1 43923U 19002B   26128.19397823  .00000598  00000+0  90978-4 0  9992
2 43923  86.6122  10.2634 0002279  81.0258 279.1217 14.72257017393367
IRIDIUM 168             
1 43924U 19002C   26128.15225582  .00000016  00000+0 -13109-5 0  9999
2 43924  86.4008  10.4076 0002189  84.9192 275.2254 14.34217759383230
IRIDIUM 173             
1 43925U 19002D   26128.20933999 -.00000012  00000+0 -11471-4 0  9990
2 43925  86.3998  10.2740 0002161  87.1476 272.9967 14.34217471383229
IRIDIUM 169             
1 43926U 19002E   26128.18812073  .00000184  00000+0  53469-4 0  9998
2 43926  86.4249  41.9090 0002893  85.2183 274.9346 14.38607127384471
IRIDIUM 172             
1 43927U 19002F   26128.20299617  .00000062  00000+0  14989-4 0  9994
2 43927  86.4002  10.2847 0002106  87.3882 272.7555 14.34217320383233
IRIDIUM 175             
1 43928U 19002G   26127.93426319  .00000088  00000+0  20074-4 0  9995
2 43928  86.4485 307.3582 0003783  32.6105 327.5329 14.43592289393170
IRIDIUM 171             
1 43929U 19002H   26128.18396925  .00000004  00000+0 -55200-5 0  9992
2 43929  86.4007  10.5941 0002105  81.7899 278.3535 14.34217596383227
IRIDIUM 170             
1 43930U 19002J   26128.20015580  .00000609  00000+0  92641-4 0  9991
2 43930  86.6123  10.2635 0002286  88.0863 272.0615 14.72255544393372
IRIDIUM 167             
1 43931U 19002K   26128.17762705  .00000019  00000+0 -20197-6 0  9991
2 43931  86.4002  10.3174 0002391  78.6228 281.5236 14.34217734383227
IRIDIUM 181             
1 56726U 23068S   26127.89540911  .00000269  00000+0  74064-4 0  9991
2 56726  86.4492  73.6293 0002059  83.6764 276.4672 14.43309297156627
IRIDIUM 177             
1 56727U 23068T   26128.09962061  .00001164  00000+0  14970-3 0  9993
2 56727  86.1979 347.8354 0002582  90.7788 269.3729 14.80222260160438
IRIDIUM 174             
1 56728U 23068U   26128.18780242  .00000584  00000+0  88779-4 0  9997
2 56728  86.6130  10.4121 0002502  88.7965 271.3539 14.72247488160133
IRIDIUM 178             
1 56729U 23068V   26128.15633169  .00001025  00000+0  13145-3 0  9995
2 56729  86.6562  42.0828 0002329  83.5341 276.6146 14.80226866160448
IRIDIUM 179             
1 56730U 23068W   26127.81294731  .00001016  00000+0  13032-3 0  9992
2 56730  86.6793  51.0860 0002643  80.2995 279.8526 14.80232094160391
